{"type":"FeatureCollection","features":[{"type":"Feature","geometry":{"type":"MultiPolygon","coordinates":[[[[23.065986801423755,-26.184812963570522],[24.676235121514754,-22.68974779678348],[25.54329190925606,-14.359990170871429],[28.887653804829686,-8.045170818247456],[31.364958912661987,-1.630525295376026],[31.4888241680536,5.051421607379652],[27.15354022934706,12.028945366401157],[21.331873225941138,16.23199142414629],[15.014745200968749,17.417597604381772],[10.431730751478977,19.064499558358875],[0.150914553974896,22.193921715155064],[-11.120823686662112,25.03089013663791],[-11.724096705795999,28.169913572081782],[-11.576458898083917,28.228616319853685],[-11.3726644187138,28.368856035429857],[-10.856226888196222,28.751227937895678],[-10.33931252052044,29.14631613369646],[-9.86958881904339,29.642983995634935],[-9.662592854993097,29.95481642361345],[-9.602674451367609,30.183719240385912],[-9.625043836133234,30.406100832182787],[-9.817042317883722,30.755221925932787],[-9.857763257519952,31.06018980618181],[-9.81326672126507,31.289060198027514],[-9.635323491589777,31.575402818877123],[-9.317557302014581,31.963718019682787],[-9.222252812878839,32.25624807949724],[-9.25076672126507,32.4214244710988],[-9.21868607093548,32.5803600179738],[-8.640263524548761,33.12173422451677],[-8.314414945142023,33.33848150845232],[-7.902406182782403,33.48548849697771],[-7.332620587842218,33.69637259121599],[-7.004007783429376,33.874984346587084],[-6.75297447730755,34.123351656157396],[-6.511472192303888,34.45429953213396],[-6.472049931221476,34.530940245135376],[-6.327673976628373,34.81162115476519],[-6.302049127118341,34.86143835659685],[-5.928758588330499,35.72785910244646],[-5.807887044446222,35.78541525479021],[-5.565000024335138,35.8623424398488],[-5.47935911704754,35.80520590420427],[-5.171789613263361,35.42376288052263],[-5.109631505505792,35.37931402798357],[-4.59297749091839,35.15118750210466],[-4.295350995557062,35.151786409575365],[-4.027887788312189,35.13323553677263],[-3.440804210202447,35.166278444487475],[-3.205772367017023,35.268607698637865],[-3.009028163449518,35.389979921538256],[-2.829877105252496,35.14205893154802],[-2.714807000653497,35.097743593413256],[-2.355662789838068,35.05391653652849],[-2.325944383435433,35.053977160872904],[-2.192973938481561,35.0542484151906],[-2.035251822964899,35.05456884976091],[-1.738327947156183,35.11883123989763],[-1.495096531407587,35.23390158291521],[-1.329105701939813,35.48890646572771],[-1.146667149560205,35.62936743374529],[-0.917491999165765,35.66803701992693],[-0.734306839005701,35.73846014614763],[-0.428770822183839,35.86006888027849],[-0.282988813416711,35.758475862700365],[-0.203663793103448,35.75072058315935],[-0.091654170946828,35.73976858730974],[0.015310812099226,35.803668581206225],[0.198671731455573,36.033309541899584],[0.474390897257575,36.22496374722185],[0.781242343886145,36.384852968413256],[1.057602915270575,36.46185644741716],[1.579693111880072,36.51388891812029],[2.293774160845526,36.540824495512865],[2.524363550646552,36.57315024014177],[2.809869083864935,36.71390112515154],[3.070006403429755,36.61885794277849],[3.323837789995917,36.65123327847185],[3.586873087389716,36.79195364590349],[3.74122456024433,36.83686789150896],[4.163919004900702,36.831351839262865],[4.394624266131171,36.83819159146013],[4.532551798327216,36.81298407192888],[4.632117304308661,36.794066988188646],[4.777191671831854,36.74338492031755],[5.144465002520331,36.66767843838396],[5.382732424242743,36.67453344937029],[5.730162176592597,36.75170477505388],[6.047393831713446,36.84155615444841],[6.322870287401923,37.09064825649919],[6.77053740928913,36.862147890288256],[6.923042807085761,36.81784018154802],[7.063241037829169,36.881854616362475],[7.204853090746649,36.99046667690935],[7.306981119616278,37.060782991606615],[7.544922861559638,37.04214438076677],[7.719043287737616,36.95327719326677],[7.792040857775458,36.83235891934099],[7.913174662096747,36.77524908657732],[8.145014795763739,36.813949190337084],[8.636709246142157,36.88525732632341],[8.86551860283161,36.96835287686052],[9.150280031664618,37.17287405605974],[9.416118654711493,37.27537878628435],[9.732199701769598,37.2823978292531],[10.02135470817829,37.200133882719896],[10.132734331591376,37.10474737759294],[10.158871683581122,36.99647482510271],[10.271508249743231,36.7545543539113],[10.392797502978095,36.716571413237475],[10.5805826515987,36.793422304350756],[10.84325126121784,36.99148901577654],[11.023757013781317,37.068324648100756],[11.039403948290595,36.90904577847185],[10.920062098009833,36.65393789883318],[10.63341239403034,36.42401465054216],[10.509244951708563,36.213553987700365],[10.511460337145575,36.08616980190935],[10.602607759936102,35.88894613857927],[10.8308267922237,35.679278932768725],[10.988951715929755,35.622298799712084],[11.125108751757391,35.24060782070818],[11.082800898058661,35.14503439541521],[10.839357408983954,34.80115469570818],[10.57402518699909,34.6481090414113],[10.116421732409247,34.2341686117238],[10.019480738146552,34.081473909575365],[10.148656877978095,33.87839850063982],[10.41260055015827,33.63112600918474],[10.650217089159735,33.49818380947771],[10.77814010093952,33.47303351040544],[10.956539186938056,33.575057588774584],[11.099118265612372,33.53722723599138],[11.208920511706122,33.25152166958513],[11.470686945421942,33.1440921651906],[12.117019686205634,32.87850149746599],[12.564756426317938,32.73963888760271],[12.798863443835028,32.73376806851091],[13.187125238878973,32.79175909634294],[13.458779367907294,32.77960928555193],[14.157023462755927,32.67937811489763],[14.433427843554266,32.46390875454607],[14.790810617907294,32.362994753081225],[15.009786638720282,32.3634410726613],[15.163704905016669,32.274806581694506],[15.241435083849677,32.17330130215349],[15.358129534228095,31.80502279873552],[15.533408197863348,31.551215730864428],[15.84332564781452,31.28500326748552],[16.013379129870184,31.228170000273607],[16.318387064440497,31.165261827666185],[16.782519373400458,31.128097139555834],[16.9837808937862,31.09674223538103],[17.421629938586005,30.99598654385271],[17.70897963951374,30.894923769194506],[17.957158121569403,30.768363558012865],[18.53721335838581,30.4137454855031],[18.608251734537422,30.374469834373926],[18.885434168210338,30.221221391013703],[18.915026697619208,30.204860292632006],[19.124539408190497,30.19894369717302],[19.318795867027976,30.255372139440905],[19.322815927965888,30.25653990383806],[19.663914713366278,30.441501222807787],[19.981537851794013,30.721730791289232],[20.11676886986042,30.957103334624193],[20.116679224474677,31.07146795864763],[19.992096933825263,31.350774370390795],[19.941582712633856,31.611169420439623],[19.961470636828192,31.795470796782396],[20.068364176256903,32.037135683257006],[20.365721735461005,32.29824026699724],[20.5155248970821,32.387511812407396],[20.76505187462116,32.496032320219896],[21.054497751696356,32.630050264555834],[21.673419031603583,32.8155895101613],[22.215989145739325,32.79128988857927],[22.543126139147528,32.722072206694506],[22.92284682701374,32.55765875454607],[23.00733283470417,32.48158987637224],[23.026656183703192,32.25291021938982],[23.153338465197333,32.138812624174975],[23.288636240465888,32.13273199673357],[23.714034113390692,32.07642325039568],[23.742419271526607,32.064098049233976],[24.034403833849677,31.937314592558764],[24.236922296984442,31.92502363796892],[24.815857920153388,31.9071536886281],[24.951525721056708,31.818492494780443],[24.982237848742255,31.647012315947435],[25.106553110583075,31.513841234404467],[25.25822928856159,31.437919222075365],[25.507155451281317,31.444781862456225],[25.78950026939655,31.489841066557787],[26.14333442161823,31.490577303130053],[26.823994669420966,31.358560167509935],[27.08809569786335,31.306726061064623],[27.438754114611395,31.251824938017748],[27.763331446154364,31.182614885527514],[27.9194498390987,30.99868544216814],[28.09982970665241,30.999057375151537],[28.517182383044013,30.961799226958178],[28.966422113878973,30.784841142851732],[29.248847040636786,30.753661714751146],[29.359381708605536,30.81107100125017],[29.683102640612372,31.05317076321306],[30.099139246447333,31.231925569731615],[30.47605613182331,31.31528814907732],[30.827059778673895,31.43673666592302],[30.995955500109442,31.468850694853685],[31.151381525500067,31.443749986845873],[31.392270121081122,31.444261156279467],[31.71741584251667,31.38775213833513],[31.808123621447333,31.178281389433764],[32.07651046226765,31.013650499541185],[32.30937865684773,31.084018312651537],[32.59724334190632,30.963901125151537],[32.76873305748249,30.95155295010271],[33.02139190147663,31.132072054106615],[33.12956527183796,31.051686845976732],[33.25459960411335,31.026528917509935],[33.557601007921946,30.967715822417162],[32.647959742052805,29.85220106716814],[32.43838027427937,29.775519930083178],[32.318491968615305,29.54019697781267],[32.59057525108601,28.93719633694353],[32.64934447716023,28.765781007964037],[32.934676203234446,28.37882574673357],[33.35421660850788,27.90954741116228],[33.566939386828196,27.36995085354509],[33.80406478355671,26.93206938381853],[33.928809198839915,26.56382330532732],[34.10422042320515,26.354524217802904],[34.514842066271555,25.573916994292162],[34.99740127037312,24.71719893093767],[35.189864191515696,24.39991911526384],[35.45345977257038,24.152688585478685],[35.65656951378132,23.994273744780443],[35.72469619224812,23.91181906338396],[35.61630156944538,23.835347734648607],[35.48792937706257,23.790595613676928],[35.468489679796946,23.720668398100756],[35.575850519640696,23.231660448271654],[35.689288172228586,23.021319948393725],[35.74630263756062,22.914340578276537],[36.1113615364864,22.64825590725603],[36.29022124717976,22.572381578642748],[36.47324660728718,22.337684236723803],[36.66042998741413,22.166537843901537],[36.800112757189524,21.91489943142595],[36.90349868248249,21.728648744780443],[37.12776854942585,21.227176271635912],[37.165026901698354,20.76426918196936],[37.25457290123249,19.651727281767748],[37.39818480919148,18.91500052090349],[37.47998717735554,18.819871507841967],[37.76123717735554,18.642554842192553],[37.89511991723812,18.56012241001322],[38.0285978646114,18.477939211089037],[38.306651148302805,18.24978407498064],[38.527468714220774,18.161315523344896],[38.641741785509836,18.06071051235857],[38.685671839220774,18.002805315215014],[38.75622731981474,17.79625648407741],[38.90385722093653,17.364074841192043],[38.96278113744327,17.191577028434484],[39.008826288683665,17.056781374174975],[39.20794204185749,16.326509081084154],[39.517928156359446,15.46304854031267],[39.79644683311726,15.088771425444506],[39.88854125450398,15.18427427883806],[39.85619262169148,15.400236688811205],[39.89788344810749,15.50198610897722],[40.03721145103718,15.387916170317553],[40.217452082140696,15.083317362028978],[40.38988402794148,14.90578707333269],[40.630530390246165,14.925351701933764],[40.739138636095774,14.919243417937182],[41.341250452502024,14.342323862273119],[41.70525649498249,13.930101000029467],[41.76108840416218,13.885752283293627],[42.07897857139851,13.861013971526049],[42.35708144615437,13.467672907072924],[42.36641982506062,13.359677873808764],[42.354964289171946,13.270696245390795],[42.40844253013874,13.175496660429857],[42.63643935631062,13.09338244076433],[43.04802230308796,12.702313982207201],[43.3304777474239,12.434074007231615],[43.458682093127024,12.224659525114916],[43.47482207725788,12.097622476775072],[43.42193129966999,12.046670519072435],[43.259139093859446,11.963715158659838],[43.061846765978586,11.91882189388933],[42.8099584908321,11.778485857207201],[42.5553312630489,11.568253122527025],[42.668772730334055,11.511313043791674],[42.95914748619343,11.537357889372728],[43.10357192466999,11.53131254788103],[43.29847625206257,11.475552164275072],[43.36809447716023,11.455634676176928],[43.788584742052805,10.941863619048021],[44.05242446373249,10.662847124297045],[44.16154769371296,10.491522394377611],[44.28083709190632,10.396465860564135],[44.44821074913288,10.428605638701342],[44.63609603355671,10.429005228239916],[44.84515288780476,10.416754327971361],[45.012576136095774,10.448878847319506],[45.270159754259836,10.570160471159838],[45.64631560753132,10.761600099760912],[45.909365686877024,10.83206423397722],[46.0882788033321,10.787970148283861],[46.43031218956257,10.66797789211931],[46.677344355089915,10.700275980193041],[46.929156336291086,10.846961580473803],[47.27975753258015,11.10187967892351],[47.39071181724812,11.159307085234545],[47.59234145591999,11.140673242766283],[47.80731872032429,11.096666895110033],[47.996157679064524,11.116128526884935],[48.442511908057725,11.296466087546179],[48.53374389122273,11.333325945097826],[48.6633520455196,11.32088717098894],[48.97027495811726,11.232596956450365],[49.3035002083614,11.246025644499682],[49.647234949572336,11.329372011382006],[50.08087066124226,11.47643622036638],[50.486067804796946,11.775948129851244],[50.69729140709187,11.94795950527849],[50.96874907921101,11.878653131682299],[51.14483169029499,11.783723436552904],[51.18070510338093,11.777448259550951],[51.24701598594929,11.656864725310228],[51.06053451011921,11.2434573995656],[51.070254358752024,10.989321314055346],[51.12975982139851,10.709877573210619],[51.055666956408274,10.506385408598803],[50.88675979088093,10.277283273894213],[50.87397674034382,9.972261034209154],[50.852705988390696,9.59732302303972],[50.77938369224812,9.36842020626726],[50.210825952990305,8.350532137114428],[49.83185485313679,7.9938817846364],[49.77715209434773,7.853968225676439],[49.82292464683796,7.695211969572924],[49.42104628990437,6.989027105528734],[49.04607299278523,6.41633804913225],[48.94951537559773,5.990390382964037],[48.791811975939524,5.704107366759203],[48.4715795845821,5.201433740813158],[48.078196558459055,4.666824423033617],[47.63646532348032,4.096041917326511],[47.55637649009968,3.992555223662279],[47.38398650596882,3.794777952391527],[46.37718206234675,2.686195917746029],[46.36050322960163,2.667831026274584],[46.22544175888997,2.552302650726346],[45.541262659533274,1.967072092253588],[44.56746962974812,1.462954007346056],[44.300696405871165,1.290809475142382],[43.724307093127024,0.800251446921251],[43.09933541455362,0.170020864515159],[42.941233667834055,0.010588750500105],[42.91478255699421,-0.016971982758619],[42.440066370470774,-0.511580146592237],[41.88418487022663,-1.21815697078047],[41.6073217720821,-1.593676365655043],[41.65220168541218,-1.752453006547071],[41.60989287803913,-1.876740492623426],[41.33932403038288,-2.051799453538038],[41.088606867296946,-2.128604806702711],[40.91536620567585,-2.078140176575758],[40.8768644661739,-2.427730954926588],[40.74980834434773,-2.593229211609938],[40.448504480822336,-2.6447261941844],[40.27134231041218,-2.816691077988722],[40.23169616173054,-3.032834209244825],[40.23441604088093,-3.191706575196363],[40.07403090904499,-3.471666492264845],[39.64013198326374,-4.08267203692732],[39.681399378283274,-4.324065603058912],[39.52981093834187,-4.61671916369734],[39.417368921740305,-4.731353200715162],[39.26727202842976,-4.776162542145826],[39.22912124107624,-4.844893850129225],[39.1224699349239,-5.03702060107527],[38.93381026695515,-5.634787000458815],[38.87236693809773,-6.092471040528395],[38.921526941759836,-6.340208925049879],[39.22087768028523,-6.784406579774],[39.5664282173946,-7.044216073792555],[39.55541900108601,-7.171341337006666],[39.437205347521555,-7.330470002930738],[39.270125421984446,-7.801093496125318],[39.28673461387898,-7.877326406281568],[39.424300226671946,-7.896092332642652],[39.43894451680135,-7.923928089744616],[39.47772887657429,-7.997649110596754],[39.40043166588093,-8.309211171906568],[39.391829523546946,-8.735015310090162],[39.57677367637898,-9.541707433503248],[39.6576147408321,-9.795738614838697],[39.83821776817585,-10.00506440524397],[40.208785089953196,-10.252111829560377],[40.38686660240437,-10.37247506503401],[40.46619323204304,-10.47525540713606],[40.52401259849812,-10.550122655671217],[40.619517359240305,-10.76598969821272],[40.5364103646114,-11.02673474673567],[40.40044310997273,-11.230388082306959],[40.311343225939524,-11.344973005097486],[40.392519983752024,-11.548167623322584],[40.450381311877024,-11.872153676789381],[40.44549086998249,-12.081891454499342],[40.52701857994343,-12.583784498017408],[40.48177245567585,-12.844442762177565],[40.36584380577351,-12.990858472626783],[40.53394225548054,-13.30826608065901],[40.60333159874226,-13.530550397675611],[40.6008634896114,-14.032622731965162],[40.59920791099812,-14.401239789765455],[40.61833480308796,-14.483810819428541],[40.701338800890696,-14.540838636201002],[40.848616632921946,-14.578646100800611],[40.85543731163288,-14.699382222931959],[40.7810392708614,-14.921983159821608],[40.527442011339915,-15.183100141327955],[40.61015990684773,-15.35451737765608],[40.57406905601765,-15.481702245514967],[40.38579848716999,-15.73632661227522],[40.025157007677805,-16.143841184418775],[39.795062098009836,-16.423971570771315],[39.471255335314524,-16.717016614716627],[38.85896972130085,-17.055155195038893],[38.19267562340046,-17.348934568207838],[37.863894495470774,-17.451328672211744],[37.27531722496296,-17.713161863129713],[36.89233306358601,-17.99996987704573],[36.31359008262898,-18.649462140839674],[35.91478255699421,-19.031639493744947],[35.377886805041086,-19.426824964326002],[34.84678939293171,-19.802927411835768],[34.72620299766804,-19.860380567353346],[34.71029571007038,-20.292583860200025],[34.67331984947468,-20.51510850314436],[34.69901565025593,-20.57224885348616],[35.02253631065632,-20.813072599213697],[35.107153925402415,-20.984491742890455],[35.03266814659382,-21.188030637543775],[34.99418929527546,-21.270725644867994],[35.20164779136921,-21.950323499482252],[35.23384765098835,-22.20447961215315],[35.260760340197336,-22.274328626435377],[35.371436151964915,-22.280451215546705],[35.448287043078196,-22.223093427460768],[35.51175979088093,-22.184820569794752],[35.53088286827351,-22.45806733493147],[35.42541411827351,-23.456112302582838],[35.29743102501179,-23.825008786957838],[35.44399932335163,-23.913671888154127],[35.512225183947336,-23.938953794282057],[35.500865015490305,-24.085165418427565],[35.4300871224239,-24.22512856845198],[35.1980314583614,-24.47983590487776],[34.88371947716023,-24.72201577548323],[34.58479979942585,-24.875175870698072],[34.01502898643757,-25.060696042817213],[33.656905207140696,-25.201269544404127],[33.347266230089915,-25.303612149994947],[32.944861444933665,-25.5396236551219],[32.65110305259968,-25.838962949555494],[32.499712976916086,-26.06808701876936],[32.63101104210163,-26.220337308686354],[32.89595702598835,-26.37232629184065],[32.91596892784382,-26.518461622040846],[32.887390253529176,-26.715051172579674],[32.849036249621165,-26.978884137909986],[32.767230066759836,-27.51663247470198],[32.60903457115437,-27.89831391696272],[32.52742675255085,-27.981102384369947],[32.345477137072336,-28.02597848300276],[32.30343535850788,-28.134109891694166],[32.39324859092976,-28.37544671420393],[32.3462248177364,-28.585289396088697],[32.234744104845774,-28.74441758517561],[31.978331598742255,-28.94834939364729],[31.563080820544013,-29.209801114838697],[31.326805068175602,-29.509405299501744],[31.296990427477606,-29.54721108798323],[30.674901041491278,-30.438341535370924],[30.487155827280144,-30.686724305145788],[30.391005548937567,-30.81392899874983],[30.294790757737793,-30.920219874431666],[29.831868204577216,-31.431621946137525],[29.295138391955145,-31.909426130097486],[29.08635846343894,-32.1267062219706],[28.921853098376044,-32.29790917758284],[28.27691939781452,-32.76323357943831],[27.656355890734442,-33.253921903412916],[27.40815070579792,-33.42601052645979],[26.962971720202216,-33.71297875766096],[26.658656153185614,-33.84707299594221],[26.3066511483028,-33.892288602631666],[25.865729364855536,-33.88682977084456],[25.618521723253973,-33.91912499789534],[25.559100183947333,-34.07814828280745],[25.565064463122138,-34.1353382242137],[25.51585868309284,-34.17357674960432],[25.313666376574286,-34.12950173739729],[25.064669641955145,-34.07280007724104],[24.928593668444403,-34.07944527987776],[24.81606963585163,-34.16864434603987],[24.69349006126667,-34.308731473725416],[24.592217478258856,-34.35978738192854],[24.429938349230536,-34.33470193270979],[24.084670099718817,-34.1510852945262],[23.742917093737372,-34.0755123269969],[23.499220880968817,-34.06966058139143],[23.359755548937567,-34.120796598237135],[23.188918146593817,-34.241897977631666],[22.971856150133856,-34.19785348300276],[22.681775125963934,-34.10311547641096],[22.5885332682646,-34.13458312854779],[22.549130472643622,-34.14788094882307],[22.262129816515692,-34.16752663974104],[21.997218164904364,-34.26340524081526],[21.66930106590534,-34.50560799960432],[21.345505747301825,-34.5443958414012],[21.14705565880085,-34.538452543061354],[20.846911463244208,-34.500923551362135],[20.514832529528388,-34.53339043978987],[20.25607207725788,-34.62289086703596],[19.883807215197333,-34.99228707675276],[19.320893320544013,-34.732857145112135],[19.279349359972723,-34.504131711762525],[19.18137267540241,-34.4217151773387],[18.966362986071356,-34.396728910248854],[18.840062174303778,-34.435120023530104],[18.72423842857624,-34.21926537875471],[18.57026771019245,-34.19417230014143],[18.5030737252071,-34.30870477084456],[18.487156900866278,-34.39771691684065],[18.346327814562567,-34.34715691928206],[18.29292396019245,-34.24557534579573],[18.412772211535223,-34.02287713412581],[18.45907500694538,-33.832127012055494],[18.073050531847723,-33.22279015902815],[17.927741083605536,-33.09596673373518],[17.867608103258856,-32.99441186312971],[17.94545844505573,-32.917976774018385],[18.231507334215888,-32.898323453705885],[18.30869773338581,-32.70750848178206],[18.335690531237372,-32.338821805756666],[18.262307199938544,-32.04027215365706],[18.178561243517645,-31.805298246186354],[17.903866800768622,-31.291069425385572],[17.5665388436153,-30.827820218842604],[17.432107923119183,-30.570482995543706],[17.354287180407294,-30.42151299838362],[17.078530344469794,-29.7992672098094],[17.00375913875929,-29.6291445846876],[23.065986801423755,-26.184812963570522]]],[[[45.299800144218736,15.934448789099509],[50.626006126058186,16.588449040525298],[55.08515532015635,18.71291520877027],[56.63347101255154,20.17288681563514],[56.01414473559347,23.22227600152487],[54.8288040546836,24.785409077017714],[55.09080031822468,25.02003630276384],[55.457198175890696,25.420184694487475],[55.53048613975788,25.37295492764177],[55.633460077746165,25.4531741964406],[56.01545623253132,25.771625124174975],[56.15673354576374,25.9664798605031],[56.29730895469929,26.15973051663103],[56.36705306480671,26.23611982937517],[56.40502837608601,25.861381136137865],[56.214846643908274,25.543342195708178],[56.16130736778523,25.47334440823259],[56.28163579109504,25.46239995693982],[56.36601928184773,25.454724870879076],[56.406260523302805,25.308688722807787],[56.40648177574421,25.07998427029314],[56.405257257921946,24.918748460966967],[56.40537551353718,24.8195072042531],[56.610796961291086,24.47688253994646],[56.79418853233601,24.26761397000017],[57.146197351916086,23.9824710714406],[57.359369486926965,23.85851371320451],[57.396296877561824,23.83704082328193],[57.45101455162312,23.805223070341967],[57.90421584556843,23.571113191801928],[58.08071807335163,23.501605592924975],[58.20529464195515,23.495515428740404],[58.46465590904499,23.50877150173845],[58.62849334190632,23.4582954275197],[59.02163604210163,23.020764909941576],[59.25432113121296,22.72900541897478],[59.46142104576374,22.538865648466967],[59.82569030235554,22.37445219631853],[59.837283167345774,22.279178224760912],[59.53569320152546,21.8020511495656],[59.25884917686726,21.47744711514177],[58.86135390709187,21.11447676296892],[58.7740605037841,20.941229844505894],[58.51204970787312,20.421229921538256],[58.403086695177805,20.357472978789232],[58.15044692466999,20.39505537625017],[58.04437163780476,20.43295057888689],[57.93127349327351,20.400937639433764],[57.80608275841023,20.171960436064623],[57.77755263756062,19.669990144926928],[57.778426203234446,19.31421049709978],[57.83862975548054,19.03480681057634],[57.65703490684773,18.970885835844896],[57.18620971153523,18.938108049590014],[56.90431121300007,18.81680067654314],[56.73888686607624,18.689376436430834],[56.608599695666086,18.466741167265795],[56.549361261828196,18.218829714018725],[56.4575529427364,18.09156187649431],[56.2575903267696,17.97677382107439],[56.01284316490437,17.93178518887224],[55.88154509971882,17.931510530669115],[55.70811751793171,17.95018347378435],[55.561072382433665,17.937171541411303],[55.38948729942585,17.8097415792531],[55.290408167345774,17.676099382597826],[55.23443511436726,17.44726141567888],[55.23563674400593,17.28843458767595],[55.19483855675007,17.148564897734545],[54.91061309288288,16.97005995388689],[54.756079706652415,16.95067175503435],[54.40687468956257,17.045220934111498],[54.08425811241413,17.01911886807146],[53.681250605089915,16.897540651518725],[53.33573440025593,16.763379656035326],[53.208453211291086,16.718633257109545],[53.02094939659382,16.653768144804857],[52.894324335558665,16.60995253201189],[52.65216735313679,16.488719545561693],[52.35659697960163,16.233945451933764],[52.23764327476765,16.10025557156267],[52.16285613487507,15.871372781950853],[52.135169062121165,15.687059961516283],[51.95041182945515,15.540526949126146],[51.59900174748452,15.378753642468041],[51.312563929064524,15.246890627104662],[50.29111770103718,14.958784662444017],[49.71286300133015,14.773288332182787],[49.33384993980671,14.632695757109545],[49.17317870567585,14.498915277678392],[48.96038726280476,14.21889742489519],[48.87929629770281,14.168719980766735],[48.76460174034382,14.097749315459154],[48.536746057970774,14.046437822539232],[48.270144495470774,14.077626787382982],[48.0361662239864,14.045357309538744],[47.662295374377024,13.847587190825365],[47.36957457969929,13.6690526830739],[46.939394983752024,13.490221582610033],[46.877734106218426,13.473871601683081],[46.601199182970774,13.40054567928972],[46.079287561877024,13.399416528899096],[45.825903925402415,13.405233942229174],[45.69247725914265,13.347759805876635],[45.51863769005085,13.207596384245775],[45.395979914171946,13.07389887448015],[45.19341567466999,12.933683000761889],[44.963572535021555,12.825172029692553],[44.788802179796946,12.80573710079851],[44.681067499621165,12.82455977078142],[44.440535578234446,12.639777742583178],[44.062747034533274,12.613552652556322],[43.84059050987507,12.663913332182787],[43.60489847704723,12.828886858628167],[43.56005004356648,12.8602786886281],[43.483645472033274,12.93000467892351],[43.34084990928913,13.126665674406908],[43.30284789512898,13.240954004485033],[43.38397887657429,13.565180383879564],[43.34756377647663,13.851036630827807],[43.2069425911739,14.079471193510912],[43.05326369713093,14.60650786038103],[42.79587844322468,15.47008093472185],[42.763525995714915,15.666981302458666],[42.88387969444538,15.984922014433764],[42.828047785265696,16.321475588042162],[42.81439879844929,16.40412863369646],[42.76366332481648,16.64545591946306],[42.53529265831257,17.07066687222185],[42.206519159777415,17.514735780913256],[42.009444269640696,17.736680589873217],[41.628558191759836,18.047204576689623],[41.39917663048054,18.440644823271654],[41.329226921454186,18.60193215647111],[43.937282334910954,17.889724304535626],[45.299800144218736,15.934448789099509]]]]},"properties":{"id":"homo-heidelbergensis","name":"Homo heidelbergensis","names":{"en":"Homo heidelbergensis","fr":"Homo heidelbergensis"},"subjectTo":"Homo heidelbergensis","partOf":"Homo heidelbergensis","borderPrecision":1,"wikidata":"Q105784","wikipedia":{"en":"https://en.wikipedia.org/wiki/Homo_heidelbergensis","fr":"https://fr.wikipedia.org/wiki/Homo_heidelbergensis"},"year":-123000,"source":"Historical Basemaps","sourceUrl":"https://github.com/aourednik/historical-basemaps"}},{"type":"Feature","geometry":{"type":"MultiPolygon","coordinates":[[[[49.60519698570515,40.68707617397965],[49.60519698570518,40.68707617397965],[49.719213134956334,40.627067108052834],[49.80730346153523,40.58070334072771],[50.0200529427364,40.6019779073781],[50.190249475939524,40.570067964751146],[50.12642577598835,40.34668310757341],[50.06744709373295,40.22831258967885],[49.75551218647278,39.90874319648302],[49.46483069073114,39.11939235638802],[49.546221509538796,38.521506952597605],[50.22060257965937,37.71654037255693],[51.02288350790628,37.107009307497194],[51.993052515490305,36.45890387173357],[52.69497585334315,36.14540611156382],[53.33668477910692,36.25494756005441],[53.31200366657754,37.68450022794942],[53.943588439063646,38.056891629146286],[53.76864832160137,38.38486877533002],[53.1603338222439,38.75788670087401],[52.976202637242025,39.39705522644267],[52.845776154033516,39.93919105734728],[52.912493738634836,40.046290956694506],[52.84545043419148,40.18038138027849],[52.84545043419148,40.33362921353044],[52.82629302452351,40.46771963711443],[52.90291503380085,40.56349905605974],[52.92485315264208,40.62931166508311],[55.48771740017916,40.58471590359975],[57.965022508011465,41.19336545930024],[63.35316111754673,40.53766495023549],[67.56457980086165,40.254665124323445],[69.79415439791075,38.289137667690795],[70.10381753638978,36.0188395898595],[66.01626410846647,34.50181882943948],[64.40601578837547,33.21613104389932],[68.98903023786524,32.90469889655789],[69.23197655825003,31.9772233272141],[68.46260290245084,31.56891648135647],[64.37504947452753,26.813234103975468],[64.26647452883817,26.4884840991224],[57.10057119320781,26.13559723547432],[57.06634047935749,26.307468019682787],[56.93497756431843,26.464543901640795],[56.929087671740305,26.75186689968767],[56.79043105552937,26.97391279812517],[56.683550867541086,26.968356691557787],[56.66781905601765,27.04989584561052],[56.43094924400593,27.106566988188646],[56.067767176134836,27.112168871123217],[55.89973357628132,27.104804598051928],[55.8053198189571,27.005092226225756],[55.65757277916218,26.996945940215014],[55.42489913414265,26.963107668120287],[55.34008696983601,26.79935225125017],[55.098128351671946,26.73744162197771],[54.92553237388874,26.53802641506853],[54.75987533043171,26.41062506313982],[54.64605620811726,26.39131888027849],[54.064944300158274,26.70138319607439],[53.63393691490437,26.74793966885271],[53.380679163439524,26.9095893728322],[52.89083388756062,27.05232390042009],[52.77987197349812,27.18784865017595],[52.63377669761921,27.314601503569506],[52.41038802574421,27.580957018095873],[51.961550745470774,27.776948534209154],[51.698863062365305,27.814521394926928],[51.611304316027415,27.82704123135271],[51.350134882433665,28.03613432522478],[51.082259211046946,28.51201971646013],[50.796755823595774,29.01329382534685],[50.702456507189524,29.133781038481615],[50.704722437365305,29.400607668120287],[50.359839472277415,29.74293478604021],[50.13237288902546,30.06642874355974],[49.71784881065632,30.002053819853685],[49.51097396324421,30.020675264555834],[49.45236495445515,30.07772596951189],[49.321360620959055,30.102862917143725],[49.235083612902415,30.223380647856615],[49.22222808311726,30.47745855923357],[49.02017119835163,30.43257101650896],[48.945723566515696,30.387942873198412],[48.80132964561726,30.08272513027849],[48.713843378527415,29.99996145840349],[48.55364898155476,29.994622789580248],[48.51058486412312,29.993188463408373],[48.21184829185749,29.948093019682787],[48.028277430041086,29.973121248442553],[47.95715239952351,29.947564684111498],[47.911360773546946,29.890292726714037],[47.935923609240305,29.80140646572771],[47.99603179405476,29.490258775908373],[47.84490874717976,29.50315436001482],[47.61403945396687,29.272241197783373],[47.80355742882038,29.184920870024584],[47.99150756309773,29.277490221220873],[48.1290617317989,29.268191896635912],[48.44353393028523,28.4402347433156],[48.462683710558665,28.385850511748217],[48.58751204918171,28.093883119780443],[48.75173858116413,27.871879183012865],[48.83184340904499,27.57345350857439],[48.85502150963093,27.522691332060717],[49.13191131065632,27.53597220059099],[49.243506464464915,27.479030214507006],[49.151927027209055,27.372457109648607],[49.22504651721523,27.30207156655087],[45.23786751652297,27.858527277887575],[37.92981744841765,28.513584375845845],[35.70024285136858,29.86523203192028],[33.89267286870647,31.061342248565833],[33.916968378527415,31.070052705962084],[34.03360358613812,31.14050449207255],[34.146304163439524,31.20857962246599],[34.19527724693562,31.23814161892595],[34.50065902183796,31.621099077422045],[34.59913543175007,31.817897402007006],[34.681338343127024,32.045978151518725],[34.758502039416086,32.300719820219896],[34.84289077232624,32.670699678618334],[34.894969019396555,32.662833772856615],[34.956587824328196,32.704818330962084],[34.959082636339915,32.796657167632006],[34.97200683067585,32.938407503325365],[35.088973078234446,33.069259248930834],[35.13231185386921,33.23151739712419],[35.20838836143757,33.33358725186052],[35.356089624865305,33.63978155728044],[35.34855941246296,33.74446829434099],[35.42986586998249,33.74446829434099],[35.49185088585163,33.83082541104021],[35.52440169761921,33.9747691976613],[35.532080683214915,34.118705354887865],[35.7162084908321,34.312369905669115],[35.82100585411335,34.343776308257006],[35.873065027697336,34.422286592680834],[35.85191634605671,34.492946230132006],[35.7507543892696,34.74680670376482],[35.80885222862507,35.01379736538591],[35.841380152209055,35.04263266201677],[35.796431574328196,35.270717226225756],[35.60734084556843,35.41754492397966],[35.663958582384836,35.45949514980974],[35.680430445177805,35.52767141934099],[35.7331762642696,35.58536108608904],[35.69143203209187,35.68502005215349],[35.739504847033274,35.690265260893725],[35.85594466636921,35.83450277920427],[35.829051050646555,35.884784303862475],[35.71850493858601,36.09155615444841],[35.66494658897663,36.133529268462084],[35.70863250206257,36.21223410244646],[35.81413775274349,36.29849189880415],[35.81724074791218,36.30102881069841],[36.09526351402546,36.48246344204607],[36.10452178428913,36.56117209072771],[36.0824308724239,36.62153204556169],[35.95679381798054,36.74749334927263],[35.89087584923054,36.77111395474138],[35.67174056480671,36.60578497524919],[35.56761458824421,36.58741720791521],[35.50617125938679,36.55855520840349],[35.54760268638874,36.54018362637224],[35.49458983848835,36.443099580962084],[35.41708281944538,36.43260534878435],[35.38869765709187,36.45359381313982],[35.35417846153523,36.414237581450365],[35.22052672813679,36.38800390835466],[35.07137206505085,36.4877086507863],[34.869910273058665,36.576922975737475],[34.66238311241413,36.64777334805193],[34.4851293892696,36.62678106899919],[34.103220972521555,36.38032492275896],[33.95171264122273,36.251578890044115],[33.95405486534382,36.15975912686052],[33.89098266075398,36.13877447720232],[33.83587554405476,36.10729559536638],[33.833697351916086,36.07057150479021],[33.753176722033274,36.14664038296404],[33.481699976427805,36.05428274746599],[33.171336206896555,35.97088202114763],[32.904116663439524,35.97669561978044],[32.64034179161335,36.00799902554216],[32.334979090197336,36.12836798306169],[31.90200713585163,36.4968639242238],[31.37069037864948,36.71234472866716],[30.90531066368366,36.794215761382006],[30.59359076927448,36.76173361416521],[30.540066751940497,36.64696081753435],[30.49665168236042,36.37298163052263],[30.472832712633856,36.18825491543474],[30.394862207873114,36.11804541226091],[30.279892954333075,36.11780508633318],[30.166131052477606,36.18761786099138],[29.66195586632038,36.07834585781755],[29.47193244407917,36.09069403286638],[29.298188242419013,36.17311819668474],[29.002251657946356,36.69479712124529],[28.81352714012409,36.535155855376146],[28.469845804674872,36.738307558257006],[28.26692298362995,36.71240957852068],[28.01418975303913,36.52716406460466],[27.91190246055866,36.69894369717302],[27.94185546348835,36.756339632231615],[28.051039728625067,36.83301504727068],[27.99880889366413,36.90936621304216],[27.5534773201778,36.91482504482927],[27.308110270006903,36.920707308012865],[27.268630060656317,37.04168280239763],[27.525639566881903,37.13141211147966],[27.492524179919013,37.2396732198781],[27.36463263939167,37.328631960112475],[27.160407099230536,37.36008032437029],[27.12256148765827,37.49385031338396],[27.141085657580145,37.64686545010271],[27.179783853991278,37.77442892666521],[27.13977340172077,37.889091097075365],[26.961377176745184,37.946105562407396],[26.6793318123653,38.104938112456225],[26.512320551378973,38.06634863491716],[26.393214258654364,38.104362093169115],[26.391598734362372,38.21912726040544],[26.46871093223835,38.44475897427263],[26.527411493761786,38.41824301357927],[26.742451700670966,38.27838858242693],[26.99743178795124,38.40005835171404],[26.819674524767645,38.52725180264177],[26.828822168810614,38.58296164150896],[26.695696863634833,38.640765749174975],[26.709471735461005,38.698573671538256],[26.96638015220905,38.76993139858904],[27.034913095934638,38.821097933012865],[27.00422004173542,38.884826265532396],[26.936802896960028,38.92456396694841],[26.785336527331122,38.940333925444506],[26.789847406847723,39.02442511196794],[26.87075141380573,39.055968843657396],[26.797139200670966,39.12955816860857],[26.707943949206122,39.182128511626146],[26.704054865343817,39.250472627837084],[26.60224250267292,39.255729280669115],[26.720158609850653,39.33724936123552],[26.853512796862372,39.46076925869646],[26.926152262194403,39.476546846587084],[26.957518610461005,39.54832800503435],[26.804265055163153,39.56715353604021],[26.546177896960028,39.51334723110857],[26.138976129992255,39.43973883267107],[26.064057383044013,39.45551260586443],[26.084887537462958,39.60400732632341],[26.141903910143622,39.660583101469896],[26.140706095202216,39.74998053188982],[26.127575907213934,39.878558717924975],[26.186009439928778,39.99719580288591],[26.3203344673946,39.99192389126482],[26.40305236290241,40.17649038906755],[26.4817114205196,40.187038027007006],[26.76528266380573,40.37694128628435],[26.996474298937567,40.371661745268725],[27.056124720080145,40.42969473477068],[27.271754297716864,40.45080908413591],[27.3292341561153,40.355834566313646],[27.449610743029364,40.30979498501482],[27.525994333727606,40.297137819487475],[27.763894114001044,40.28725393887224],[27.830164942248114,40.34528311367693],[27.799843821032294,40.403319917876146],[27.679287943346747,40.4613529073781],[27.807831797106513,40.50357016201677],[27.95380500267292,40.48773916836443],[28.00645926903034,40.45080908413591],[27.908217463000067,40.35055502529802],[28.00399115989948,40.36212881680193],[28.477719339831122,40.39510305996599],[28.756440195544013,40.37645300503435],[28.926756891711005,40.355834566313646],[29.05242446373249,40.33473166104021],[29.122286829455145,40.413871370512865],[29.083527597887763,40.45607718105974],[28.873215708239325,40.471908174712084],[28.777958902819403,40.524676881987475],[28.9016218514278,40.62010534878435],[29.52519706199909,40.68828924771013],[29.713147196276434,40.693561159331225],[29.882718119127997,40.746356569487475],[29.683445963366278,40.7516361105031],[29.417172464831122,40.741073213774584],[29.32035544822956,40.741073213774584],[29.289643320544013,40.806686006743334],[29.014533075793036,40.97867163296404],[29.161208185656317,41.21636541958513],[29.5777807564571,41.153365694243334],[30.13762381981159,41.131835542876146],[30.256087336046942,41.18466528530779],[30.744805368883856,41.04032477017107],[31.217682871325263,41.05409201260271],[31.404126200182684,41.163539491850756],[31.385666880114325,41.28504141445818],[31.666388544543036,41.3948131429738],[31.87128737877155,41.49144323940935],[32.418982538683665,41.74916800137224],[32.687911066515696,41.845973573882006],[33.15546325157429,41.94960745449724],[33.55554107139851,41.982501589018725],[33.89665511558796,41.95108374233904],[34.30390075157429,41.89411886807146],[34.66290954063679,41.87558325405779],[35.001868280871165,42.04316290493669],[35.09883025596882,41.80586203213396],[35.286074671252024,41.67147787686052],[35.41143706749226,41.626815401274584],[35.67785552452351,41.62093313809099],[35.95779326866413,41.68564566250505],[36.16136840294148,41.35250052090349],[36.38289550255085,41.23751791592302],[36.641245874865305,41.31498297329607],[36.81701186607624,41.28968390103044],[37.252825769884836,41.02772101040544],[37.821841272814524,41.00963171597185],[38.31396392296101,40.92090185757341],[38.65118316124226,40.921569429594896],[39.13864425133015,41.04431875820818],[39.37017730186726,41.06399878140154],[39.66300490806843,41.00049551602068],[40.00671294639851,40.95632895107927],[40.36101439903523,40.96344336147966],[40.60989287803913,41.02802618618669],[41.2777620965858,41.28002979187384],[41.29311660240437,41.28582342739763],[41.48396209190632,41.436542116362475],[41.52111342857624,41.46583517666521],[41.666113886339915,41.729152284819506],[41.68046859215046,41.79333838101091],[41.652834804736294,42.10921988832814],[45.20690120267507,41.611454730324866],[47.250677916636725,40.91314599733756],[49.60519698570515,40.68707617397965]]]]},"properties":{"id":"neanderthal","name":"Neanderthal","names":{"en":"Neanderthal extinction","fr":"Neanderthal extinction"},"subjectTo":"Neanderthal","partOf":"Neanderthal","borderPrecision":1,"wikidata":"Q6984280","wikipedia":{"en":"https://en.wikipedia.org/wiki/Neanderthal_extinction"},"year":-123000,"source":"Historical Basemaps","sourceUrl":"https://github.com/aourednik/historical-basemaps"}},{"type":"Feature","geometry":{"type":"MultiPolygon","coordinates":[[[[0.631052000821946,50.913449378059454],[1.541220940062352,50.62977866466452],[3.727523803407853,49.8616594758184],[11.623933834623319,50.49622546912436],[14.070272628607718,51.044569476766505],[16.175981970265177,50.75161317928405],[19.830007004317824,49.90156694229858],[23.48403203837047,50.00119132261949],[24.691718278438728,49.88161733250597],[27.41675389705426,47.38562376089627],[30.262741120535104,46.02885654574479],[30.068821939928778,45.86140020962419],[29.729748758776434,45.76999243374529],[29.62951186607624,45.750358186919115],[29.50043014000202,45.523368440825365],[29.53609374473835,45.4521976339406],[29.61591628502155,45.4102054464406],[29.683211359484442,45.37478979702654],[29.71076491783405,45.25833471890154],[29.57896140526081,45.05750235195818],[29.45752242515827,44.91514929409685],[29.261582407458075,44.8954234945363],[29.089749369127997,44.875732027251146],[28.91823676536823,44.76575049038591],[28.68624785850788,44.48805197354021],[28.573113474352606,44.19782217617693],[28.529885324938544,43.843471132475756],[28.510106119616278,43.74307592983904],[28.48053840111042,43.592284761626146],[28.445693048937567,43.476363741118334],[28.328095468981513,43.437526308257006],[28.187058481676825,43.450118623930834],[28.034638437731513,43.39190252896013],[27.887320551378973,43.0635257589406],[27.869908365710028,42.79987677212419],[27.83616355369831,42.7355228292531],[27.654044184191473,42.68373831387224],[27.501950296862372,42.51634558315935],[27.494702372057684,42.40090139980974],[27.60787108848835,42.41677816982927],[27.722533258898505,42.316215120512865],[27.737710031969794,42.247001253325365],[27.91340735862995,42.07810171719255],[27.917952570421942,41.97767218228044],[28.026202234728583,41.882384859282396],[28.01817801903034,41.75320776577654],[28.069838556750067,41.62496908779802],[28.104397806627997,41.59297140713396],[28.371457132799872,41.43312796230974],[28.740222010119208,41.324828706938646],[29.012368235094794,41.25483282681169],[29.081099543078192,41.20051153774919],[28.96445373008991,40.98923834438982],[28.827807459337958,40.914699159819506],[28.596150431139716,40.946986757475756],[28.173314127428778,41.05789526577654],[28.026368174059638,41.02620657559099],[27.932183298571356,40.95754965420427],[27.474169764025458,40.96283300991716],[27.313046488268622,40.78991278286638],[27.26375678489948,40.66717108364763],[26.8889265389278,40.524676881987475],[26.613572153551825,40.39804037686052],[26.51393989036823,40.281974397856615],[26.37586310814167,40.21340902920427],[26.255158457262763,40.081561647612475],[26.1408853859737,40.04465445156755],[26.21428969810749,40.16066702480974],[26.222796473009833,40.223956667143725],[26.194821390612372,40.30307348843279],[26.457545313341864,40.4349742757863],[26.556477579577216,40.498290621001146],[26.454838785631903,40.584308229643725],[26.418061289294013,40.57782324429216],[26.124041590197333,40.60284765835466],[26.020724329455145,40.66932257290544],[25.99287513206745,40.85245855923357],[25.63570502708698,40.87737616177263],[25.301114115221747,40.89594229336443],[25.046317133410223,40.95227392788591],[25.01892951439167,41.01714666958513],[24.81211570213581,40.93342169399919],[24.700663599474677,40.878341280180834],[24.51912787864948,40.873065553862475],[24.50495246361042,40.984069429594896],[24.354302439196356,40.97096212979021],[24.21905806968952,40.82968481655779],[24.02515510032917,40.74636038418474],[23.885952982409247,40.732894502837084],[23.74839499901081,40.80443152065935],[23.634697947008856,40.7727542745656],[23.63297751854206,40.71316870327654],[23.70905593345905,40.63003500576677],[23.785174402697333,40.477191530424975],[23.923703226549872,40.45080908413591],[24.29535201500202,40.17649038906755],[24.220635447008856,40.14484747524919],[24.05477813194538,40.260882936674975],[24.047778162462958,40.30835684414568],[23.92353347252155,40.34528311367693],[23.774773630602606,40.39276465054216],[23.722168955309638,40.34824331875505],[23.62723449180866,40.34528311367693],[23.658801111681708,40.28726156826677],[23.651745829088934,40.22922857876482],[23.803664240343817,40.15539129849138],[23.868659052355536,40.16067465420427],[23.920109781725653,40.05519827480974],[23.906617197497138,39.99719580288591],[23.796032938463934,39.986651979643725],[23.59577277611042,40.19231756802263],[23.44248679588581,40.255607210356615],[23.349078211291083,40.28197821255388],[23.291760477526434,40.28726156826677],[23.293139490587958,40.245055757719896],[23.259058985216864,40.22922857876482],[23.32103446434284,40.15539129849138],[23.366839441759833,40.107928835112475],[23.436467203600653,40.04465445156755],[23.523348841173895,40.01828726406755],[23.5921850533321,40.00246389980974],[23.638585123522528,39.96034201260271],[23.596890482409247,39.93405493374529],[23.37439254234577,39.95508917446794],[23.260525736315497,39.970870577055834],[23.27630904625202,40.04992254849138],[23.21477797935749,40.18176611538591],[23.141140970690497,40.26615484829607],[22.96016028831745,40.31470831509294],[22.74805549095417,40.482467256743334],[22.8639021248653,40.53522833462419],[22.875462564928778,40.59632452603044],[22.851946863634833,40.65133627529802],[22.76996711204792,40.66717108364763],[22.70125487755085,40.57744940396013],[22.492066416247138,40.498290621001146],[22.602265390856513,40.39723929043474],[22.489617380602606,40.23052557583513],[22.46736243675495,40.11848028774919],[22.525612864001044,40.064166628081225],[22.555129084093817,39.986651979643725],[22.69509795616413,39.83448370571794],[22.754473719103583,39.81834753628435],[22.81343177269245,39.602740846831225],[23.07416823814655,39.413451753813646],[23.236084970934638,39.20315893765154],[23.158499750597723,39.14007910366716],[23.05191710899616,39.10328634854021],[23.099806818468817,39.18738516445818],[23.045252832873114,39.27149923916521],[22.981301340563544,39.329330049712084],[22.918986353380927,39.34510382290544],[22.85085395286823,39.36613043423357],[22.72025779197956,39.2872691976613],[22.766058954699286,39.20278891201677],[22.834883722765692,39.16636236782732],[22.87106231163288,39.02434881802263],[22.784213098986395,38.940333925444506],[22.490498575670966,38.87685354824724],[22.602313074572333,38.8562389242238],[22.7232885689571,38.793170534331225],[22.899373087389716,38.766891084868334],[22.984231028063544,38.6670413839406],[23.09980109642292,38.67229803677263],[23.169491800768622,38.6670413839406],[23.19099524925495,38.610343538481615],[23.35615638206745,38.489501558501146],[23.49384406517292,38.48313101406755],[23.555766138537177,38.351764284331225],[23.682751688463934,38.34651144619646],[23.803948435290106,38.34651144619646],[23.96074393699909,38.20991476650896],[23.96699050377155,38.15213354702654],[23.880024942858466,38.115356050688646],[23.98729995201374,37.763427339751146],[23.91818145225788,37.68464239712419],[23.83551314781452,37.68464239712419],[23.733683619005927,37.85785635586443],[23.634148630602606,37.87897833462419],[23.540715250475653,38.00410040493669],[23.495701822741278,38.06807669277849],[23.419257196886786,38.06807669277849],[23.195841822130927,38.00503882046404],[22.98061469505573,37.95776709194841],[22.898057016833075,37.899989687163256],[23.03996756981159,37.85796698208513],[23.04539206932331,37.773578249174975],[23.048874887926825,37.642631136137865],[23.1513834328487,37.59012182827654],[23.220547708971747,37.601825319487475],[23.321707758410223,37.637382112700365],[23.312159571154364,37.54810675259294],[23.418124231798895,37.46934088345232],[23.18497947166706,37.427333437163256],[23.185792002184638,37.37482794399919],[23.109564814074286,37.34664114590349],[22.97097686241413,37.38532217617693],[23.02534583519245,37.479842745024584],[22.942069086535223,37.518390260893725],[22.713290247423895,37.54343374844255],[22.642317804796942,37.584865175444506],[22.638745340807684,37.49228628750505],[22.72623923729206,37.28850897427263],[22.81334975670124,37.212054811674975],[22.793108973009833,37.13855703945818],[22.886887583239325,37.0466800558156],[22.98255256126667,36.61475332852068],[22.673554453356513,36.75428351040544],[22.524447473986395,36.722125612456225],[22.39029601524616,36.524371706206225],[22.191407236559638,36.85523565884294],[21.984171900255927,37.02048071499529],[21.780915293200263,36.82254370327654],[21.588168177111395,36.98144110317888],[21.53144362877155,37.11514624233904],[21.626500162585028,37.306518160063646],[21.613707575304755,37.414847933012865],[21.517313990099677,37.535758577544115],[21.29634765098835,37.72654303188982],[21.221131357653388,37.828395448882006],[21.22843078087116,37.904906831938646],[21.4404516548946,38.17951544399919],[21.7144995064571,38.13544043179216],[21.905766520006903,38.26973684902849],[21.996687921984442,38.2507816183156],[22.7472143502071,37.95260580654802],[22.898655924303778,37.99755438442888],[23.116345438463934,38.157394014555834],[22.996743235094794,38.17934378262224],[22.875638041002997,38.20460089321794],[22.333741220934638,38.42670782681169],[21.82647231529499,38.46395834561052],[21.66125777672077,38.438109956938646],[21.364455255968817,38.412005983549975],[21.172404322130927,38.347838960844896],[20.771830591662177,38.85093268032732],[20.892598185045966,38.895831667143725],[21.006508860094794,38.870544038969896],[21.10468581627155,38.92177542324724],[21.159516367419013,39.00482519741716],[21.00718406151081,39.11298712368669],[20.901148828966864,39.061732851225756],[20.677752527697333,39.08042486782732],[20.2118082375362,39.404925905424975],[20.122382196886786,39.551009737212084],[20.09082892845417,39.602531038481615],[20.02855971763874,39.813781343657396],[19.803648981554755,40.01696356411638],[19.369067224962958,40.260280214507006],[19.38022521446491,40.32358130093279],[19.48371222923542,40.295890413481615],[19.49448302696491,40.40271719570818],[19.33922294090534,40.588737093169115],[19.527255091173895,40.865890108305834],[19.44540313194538,40.964896761137865],[19.52995017479206,41.218444429594896],[19.416991266711005,41.3452525960988],[19.498915705187567,41.523620210844896],[19.619383844836005,41.55930288906755],[19.606965097887763,41.76153906460466],[19.457886728747138,41.79808386440935],[19.36771300743366,41.84637030239763],[19.338465723498114,41.86202200527849],[19.143036875231513,41.93209036465349],[19.135544809801825,41.99954184170427],[18.909899744494208,42.217792116362475],[18.843149619610575,42.24141953939946],[18.528643640978583,42.35274466152849],[18.513588938219794,42.362140260893725],[18.248711618883856,42.52743872280779],[18.001368555529364,42.694457613188646],[17.646380457384833,42.86460074063005],[17.59567931602741,42.888900362212084],[17.547980341418036,42.92011984463396],[17.304074229587822,43.076207478853945],[17.075087580187567,43.22274740811052],[16.992262873156317,43.32271536465349],[16.63981345604206,43.389735780913256],[16.548510584337958,43.46131476040544],[16.366747889025458,43.51302298184099],[16.059407267077216,43.43347891445818],[15.912835154040106,43.652247987944506],[15.494369067141944,43.88844455798436],[15.412318262560614,43.93475683804216],[15.149468454821356,44.239928804594896],[15.274405512316473,44.23661383267107],[15.548222574694403,44.22934683438005],[15.285944017870673,44.328918062407396],[14.989106211169013,44.54002722378435],[14.90696147392536,44.72332342739763],[14.945532831652411,44.92658957119646],[14.815391573412665,45.07786902065935],[14.524585756762274,45.2662845480031],[14.354488405688056,45.32289084072771],[14.238621744616278,45.06235464688005],[14.174608263476141,45.01038702603044],[14.188512835009345,44.94254644985857],[14.060400042040595,44.8947025167531],[13.991256746752509,44.783099733549975],[13.895102533800848,44.759181581694506],[13.672059092028388,45.05035742397966],[13.643589052660712,45.17908819790544],[13.526890787585028,45.454310976225756],[13.556276354296454,45.45960196133318],[13.749085459215888,45.49433096523943],[13.799984011156806,45.566371523100756],[13.673180613024481,45.71450766201677],[13.564614328844794,45.72652395840349],[13.437729868395575,45.63843115444841],[13.367695841295966,45.69448813076677],[13.156165155871161,45.72652395840349],[13.104608568651923,45.58238562222185],[12.89865020225788,45.55837210293474],[12.448155436022528,45.394286714751146],[12.483212503893622,45.46231421108904],[12.2797432274654,45.40228994961443],[12.2514171929195,45.290282808501146],[12.180371317370184,45.27027853604021],[12.176189455492743,45.21429022427263],[12.31251338432575,45.17829474087419],[12.322136911852606,45.04236563320818],[12.408988031847723,44.98900946255388],[12.52309039543415,44.882751070219896],[12.476044687731513,44.78708609219255],[12.377765212618073,44.73152979906547],[12.273584398730048,44.67263754482927],[12.280731234057196,44.55012472744646],[12.345076593859442,44.30104025479021],[12.50811700804947,44.131458090135354],[12.697230371935614,43.93475683804216],[13.600871119005927,43.53480490322771],[13.73155692528034,43.37416037197771],[13.791634592516669,43.123344026762865],[13.915090593798407,42.87276419277849],[14.076401988771625,42.633776395633475],[14.092769655688056,42.60952719326677],[14.404933008654364,42.35311087246599],[14.429446711338755,42.326661124424014],[14.519309076769598,42.229701601225756],[14.719955477221259,42.1417613851613],[14.738527330858954,42.0471568929738],[14.922405275805243,41.97177084561052],[15.448605570299872,41.8567272054738],[16.012843164904364,41.904323183257006],[16.187411341173895,41.84086187954607],[16.19841483543659,41.74566992397966],[15.989146265490302,41.63464697476091],[15.873253855211981,41.50214346523943],[15.99104407737995,41.40614279385271],[16.420268091662177,41.2787242757863],[16.945963892443427,41.09381445522966],[17.258607996659602,40.955994251860766],[17.319272074206122,40.929252229887865],[18.033919367296942,40.59665258999529],[18.059941324694403,40.513534151274584],[18.383612665636786,40.30775030728044],[18.522648844225653,40.09413107510271],[18.43367865989948,39.89840658779802],[18.36491874168659,39.746722780424975],[18.160130533678778,39.873134218413256],[18.017067942126044,39.947894655424975],[17.967745813830145,40.16689261074724],[17.84960463951374,40.243495546538256],[17.61914924095417,40.28783758755388],[17.401650461657294,40.29192694302263],[17.20417121361042,40.397941194731615],[17.242802652819403,40.49576147671404],[17.084080728991278,40.525111757475756],[16.94871238182331,40.48109015103044],[16.844130548937567,40.36313589688005],[16.727564844591864,40.18360479946794],[16.60441306541706,40.08990820522966],[16.623852762682684,39.96775396938982],[16.535006556017645,39.83156546230974],[16.532101664049872,39.69751318569841],[16.87398627708698,39.54365118618669],[17.1490698189571,39.4218021261281],[17.107419046862372,39.28047140713396],[17.120997461779364,39.08602102871599],[17.180712732775458,39.022208772856615],[17.09468940208698,38.915023409087084],[16.797699961169013,38.92585714932146],[16.613329920275458,38.82732733364763],[16.522202524645575,38.7250247823781],[16.572001490099677,38.457118593413256],[16.330693277819403,38.32074316616716],[16.052943262560614,37.93117483730974],[15.785237345202216,37.9097057210988],[15.710227045519598,37.94143637295427],[15.627475771410712,38.004211031157396],[15.626577410204657,38.2330814230031],[15.790868792040595,38.29639776821794],[15.933466944201239,38.539916597563646],[15.82730010460163,38.622733675200365],[15.989846262438544,38.73476370449724],[16.152209314806708,38.70126684780779],[16.212225946886786,38.777953706938646],[16.17720893333698,38.93099173184099],[16.08256247947956,39.01247366543474],[15.98955253074909,39.42835196133318],[15.846514350404568,39.62985800103884],[15.824671778185614,39.660628877837084],[15.75702193687702,39.93362768765154],[15.666200670702704,40.09186133022966],[15.515924486620673,40.06594809170427],[15.43203357170368,39.988971315581225],[15.027263674242743,40.2121959554738],[14.89867118309284,40.24145849819841],[14.992320093615302,40.372218691069506],[14.95100501487995,40.551478944975756],[14.743317636950263,40.70481451626482],[14.334127459032782,40.59360464688005],[14.349769625170477,40.64252432461443],[14.494590792162665,40.72996100063982],[14.370310816271552,40.85147055264177],[14.23999598930622,40.8529430257863],[14.050873789294013,40.76751288052263],[13.941878351671942,40.99803503628435],[13.852500948412665,41.09095724697771],[13.797006639940985,41.193446718413256],[13.760507236067033,41.20669841656926],[13.498390230639227,41.301864229399584],[13.32910725781167,41.31109494888881],[13.271446260912665,41.31423910732927],[12.976777109606513,41.3713756429738],[12.641516718371161,41.53109701748552],[12.394848856432684,41.72954901333513],[11.963433298571356,42.00474127407732],[11.960132972273149,42.00737273979235],[11.49736503074909,42.37635382290544],[11.10476306389118,42.54908331509294],[10.7427559227779,42.850509248930834],[10.4877453179195,43.23593863125505],[10.337910145780594,43.59620282818045],[10.292479547961005,43.705436311919115],[10.261382707897823,43.74523947500629],[10.155236147666239,43.8811043680133],[10.136747393114813,43.904769502837084],[9.909300837023505,44.11047705288591],[9.825498048876707,44.152548314494645],[9.691935572130927,44.21960028286638],[9.157044443590888,44.37323721523943],[8.89658549736286,44.437186800200365],[8.671724352343329,44.417403780180834],[8.342789137514062,44.220187813196446],[8.186360392077216,44.12639959927263],[8.08956766177473,44.050829496605],[8.04806702830276,44.01842822925312],[7.979526552660712,43.96491583462419],[7.689120325548895,43.88704641934099],[7.552810224993475,43.867450319487475],[7.467525371293705,43.81083423046961],[7.397118601305731,43.76409491177263],[7.297616514666327,43.66730078335466],[7.224120447518526,43.62420135563484],[6.9230800003841,43.44766577358904],[6.523014101488837,43.15085180874529],[6.3312249512508,43.111869417387865],[6.187778505785712,43.09228857632341],[5.828570398791083,43.02081640835466],[5.646554979784735,43.033317171294115],[5.434490236742743,43.103656374174975],[5.051816973192938,43.32809790249529],[4.909845861895331,43.366439424712084],[4.7505946488216,43.35325964565935],[4.64651397178913,43.32086523647966],[4.416764769060858,43.34614523525896],[4.078196081621893,43.487086855132006],[3.80746892402912,43.46722754116716],[3.478712830050238,43.31209524746599],[3.317868027193793,43.19595297451677],[3.067900213701972,42.944564424712084],[3.001891169054755,42.77080877896013],[3.045898947222479,42.539455019194506],[3.068452011916403,42.44591278472262],[3.08708146522785,42.368644319731615],[3.086528334124335,42.32911261196794],[3.086286100847968,42.12072332974138],[3.156553778155097,42.0757213460988],[3.128878864748724,41.8572269308156],[2.628259214861639,41.61954077358904],[2.200590166552313,41.44614752407732],[2.080724749071845,41.298488222319506],[2.065487708214854,41.295597639645],[1.609828624232062,41.2091556417531],[1.442095519139162,41.179998619443616],[1.311244878275641,41.157252870757006],[0.879201921923407,41.02173575039568],[0.766031567088621,40.90752915727346],[0.73375180671955,40.87495382900896],[0.709782037241705,40.785148225981615],[0.827125462992438,40.72742422695818],[0.787556442721137,40.656886659819506],[0.505141589148291,40.592757784087084],[0.237927588923224,40.240199648100756],[-0.16062503744816,39.8860240804738],[-0.203663793103448,39.799438081938646],[-0.284515862064115,39.636771761137865],[-0.394848433034173,39.43445929165544],[-0.235902842776529,39.062404237944506],[-0.203663793103448,39.012652956206225],[-0.165695284204237,38.95406302090349],[0.126115980847128,38.82135351772966],[0.172570082648047,38.73834570522966],[-0.107004006104223,38.59149893398943],[-0.203663793103448,38.54402884121599],[-0.435155329005472,38.43033941860857],[-0.564126816289178,38.21486624355974],[-0.66472887684559,38.176574312407396],[-0.872343566910974,37.75979956265154],[-0.802563574807397,37.61500509854021],[-0.91827228357052,37.57034262295427],[-1.36456796218609,37.548392854887865],[-1.625712481038324,37.4394908773488],[-1.816879835622064,37.29247625942888],[-1.940475192563287,36.951598726469896],[-2.238797393338434,36.72839697476091],[-2.355097499387018,36.82405050869646],[-2.624331441418878,36.811297975737475],[-2.761496749417535,36.69013937588396],[-2.915331569211236,36.69013937588396],[-2.969792333142511,36.741149507719896],[-4.446585622327081,36.72201880093279],[-4.757303681866876,36.48610647793474],[-5.216736283795587,36.4095950948781],[-5.37422749091839,36.2374759542531],[-5.386749711529962,36.109984956938646],[-5.424260106580011,36.071742616850756],[-5.457090821759454,36.167358003813646],[-5.487933125989191,36.173724733549975],[-5.48548647453045,36.065368257719896],[-5.660587277905694,36.00800665493669],[-5.850014176861993,36.071742616850756],[-6.204461064831964,36.282096468169115],[-6.304971662060968,36.454223238188646],[-6.288880792157403,36.57217749233904],[-6.44402500678753,36.62318380947771],[-6.500485864178888,36.718829714018725],[-6.421713319318048,36.7921634542531],[-6.6321539549992,37.02175100918474],[-6.947954621808282,37.14931448574724],[-7.010098424451105,37.16525992031755],[-7.227823701398126,37.225856386382006],[-7.491503682629816,37.208156191069506],[-7.603436437146417,37.16297873135271],[-7.836042371289484,37.032252870757006],[-8.03363796760296,37.008788667876146],[-8.280239072339288,37.088580690581225],[-8.54107376624798,37.088580690581225],[-8.667059865491144,37.12144049282732],[-8.990849462048761,36.990008913237475],[-9.0166434912846,37.06980093594255],[-8.841511693494073,37.525146089751146],[-8.84871953494979,37.816767886457356],[-8.851028409497491,37.910182558257006],[-8.932785954968683,37.9618411886281],[-8.822993245618097,38.206073366362475],[-8.831291485231784,38.267001996822486],[-8.847303357617609,38.384566866118334],[-8.788920369641534,38.43598135586443],[-8.853651967541925,38.49964102383318],[-9.0223226218388,38.46102102871599],[-9.236570325391046,38.41744955654802],[-9.285158124463312,38.61946829434099],[-9.069152799145929,38.64295920010271],[-8.941892591016046,38.74191626187029],[-8.960826840893976,38.81846197720232],[-9.040849652783624,38.92018087979021],[-9.17575451423382,38.732230745512865],[-9.361637082593194,38.67114599819841],[-9.52239700843548,38.68993719692888],[-9.549007382886163,38.77451666470232],[-9.459762540356866,38.95307882900896],[-9.397706952588312,39.23036154385271],[-9.41526981879925,39.36667593594255],[-9.299269643323175,39.41773565884294],[-9.140552111052363,39.615796202121125],[-9.117922750012628,39.644034944731615],[-8.91558548499798,40.138148866850756],[-8.969669309155694,40.19001730557146],[-8.694069829480402,40.992171846587084],[-8.851777997510187,41.407828890044115],[-8.85475441505169,41.5968509542531],[-8.920735326306573,41.767020784575365],[-8.806055036084405,41.889178835112475],[-8.860485997693292,42.01453360195818],[-8.79857060004925,42.19453009243669],[-8.644062963025323,42.41974981899919],[-8.805045094983331,42.631557069975756],[-8.941723790662042,42.82419546719255],[-9.173123326794855,42.85590323086443],[-9.246859517590753,42.900775514799975],[-9.270803418652765,43.048690401274584],[-9.19746681739544,43.15821417446794],[-9.013589826123468,43.28085669155779],[-8.84921642829632,43.32624395962419],[-8.595722165601007,43.339618288237475],[-8.310413327710382,43.35304983730974],[-8.250697103039972,43.43042715664568],[-8.220224347607843,43.61720999355974],[-7.979528871075861,43.74005468960466],[-7.636274781720392,43.72141226406755],[-7.151302304761163,43.55494269009294],[-6.807975736157648,43.523421846587084],[-6.467573609845392,43.56272467251482],[-6.208046403424493,43.640521608549975],[-5.979656186597101,43.70537909146013],[-5.820451226727716,43.705688081938646],[-5.537417855756036,43.577453218657396],[-5.224896398083917,43.507247530180834],[-4.802335706250421,43.46944388027849],[-4.110216107861749,43.45151098843279],[-3.847605910794488,43.43916281338396],[-3.417000499264947,43.37565191860857],[-3.195965257184259,43.446883760649584],[-3.007205691830865,43.55027350063982],[-2.768362489239923,43.53787573452654],[-2.367384400861017,43.32624395962419],[-2.142923348755845,43.331471028881836],[-2.065644708173028,43.333270631987475],[-1.914577808873407,43.30541571255388],[-1.746070232884637,43.360160433012865],[-1.561407771603815,43.52442511196794],[-1.314379182355157,44.55896338101091],[-1.135849919812433,44.60010107632341],[-1.230320539967767,44.73041113491716],[-1.331778016583673,44.61382635708513],[-1.275514092938653,45.12873037930193],[-1.17519172717785,45.50050314541521],[-1.123440351979486,45.43161734219255],[-0.900364187257043,45.293910585600756],[-0.814226654069177,45.12184103604021],[-0.72848602821087,45.018642030913256],[-0.854702380196802,45.3214488851613],[-1.138394918935052,45.58316382046404],[-1.247395124928705,45.6881481039113],[-1.23650559474682,45.80004461880388],[-1.075199690358392,46.01461752529802],[-1.08831605215841,46.03904421361708],[-1.165981498257867,46.183681093413256],[-1.256056633488885,46.30683096523943],[-1.402668443219415,46.40393408413591],[-1.710726466672174,46.448791109282396],[-1.942478147046319,46.70579870815935],[-2.129660335080377,46.85084494229021],[-2.004645553128473,47.04250296230974],[-2.109477606312982,47.124042116362475],[-2.263749804990045,47.18288382168474],[-2.493711915509454,47.24692114468279],[-2.576483932034723,47.3248668539113],[-2.465543475644342,47.494384371001146],[-2.613652196423761,47.572249971587084],[-2.842474189297906,47.49190481777849],[-3.062696424023859,47.60393866177263],[-3.433526244656793,47.71681173916521],[-3.711868014828912,47.798148714262865],[-3.858102050320856,47.791808687407396],[-3.954837766186944,47.90433844204607],[-4.364373651044122,47.829310976225756],[-4.390935388104669,47.94184836025896],[-4.510127511517755,47.99813040371599],[-4.675397363202325,48.0168948995656],[-4.70030638267254,48.06380423184099],[-4.312866178052179,48.10133322354021],[-4.350984063641778,48.20456656094255],[-4.587968316571466,48.25149496670427],[-4.388901677624933,48.29843863125505],[-4.350201573865167,48.39050634976091],[-4.473793950574152,48.38293799038591],[-4.592021432416193,48.392318330962084],[-4.779634442822687,48.3547740804738],[-4.761963334576837,48.552001558501146],[-4.625704255597345,48.5466686117238],[-4.488299336926691,48.61226614590349],[-4.251477208630792,48.65191229458513],[-3.998872962491266,48.73053701992693],[-3.902217355267755,48.645961366850756],[-3.821306434170953,48.721149049956225],[-3.607873406903497,48.692950807768725],[-3.557670083539239,48.810077272612475],[-3.435057845608942,48.83645971890154],[-3.091225352780572,48.87155111904802],[-2.914459434048883,48.706786714751146],[-2.816706295197107,48.614332396902974],[-2.790535417096368,48.58958014126482],[-2.636378016965143,48.552001558501146],[-2.342885461346857,48.67414816494646],[-2.200072136418573,48.598983370024584],[-2.075967636601678,48.65615805264177],[-1.870566812054864,48.71174200649919],[-1.85761269618725,48.60836752529802],[-1.591356840626947,48.6375003683156],[-1.45658775855755,48.683551393706225],[-1.57554790069317,48.76814230557146],[-1.588412251965753,48.88095053311052],[-1.563408580319635,49.036239229399584],[-1.579779472844354,49.22901114102068],[-1.638999786870233,49.21960791226091],[-1.891543593899957,49.526351534087084],[-1.941284146802179,49.70930441494646],[-2.613235178614621,50.24450983947082],[-2.967134736270864,50.31384331548287],[-3.155105189782273,50.43851538287409],[-3.237812189327293,50.56285994420281],[-3.521466937558404,50.617431246001146],[-3.563183036343805,50.361434541899584],[-3.715036120908014,50.21933706875505],[-3.881743398205987,50.200397096831225],[-4.004238095776788,50.31406363125505],[-4.242629018323175,50.39146002407732],[-4.303295102612726,50.32354315396013],[-4.540565457837335,50.35795172329607],[-4.967033830182306,50.212245546538256],[-5.282338586346857,49.963824831206225],[-5.429218259351007,50.06785162563982],[-5.777813401715509,50.13411673184099],[-5.237766232983819,50.34629400845232],[-5.016647305981866,50.56051977749529],[-4.815270391003839,50.60416754360857],[-4.604564633862726,50.778747163969896],[-4.551536527173273,50.997157655913256],[-4.442557302014581,50.96866186733904],[-4.277284589307062,51.06367071743669],[-4.280993905560724,51.18723639126482],[-3.825231519238702,51.2347789632863],[-2.800151360738488,51.557471021034246],[-1.018063793783398,51.55281542911145],[0.631052000821946,50.913449378059454]],[[13.110316899322699,46.49768790823333],[14.782497847109504,47.17554599900238],[11.933596973102354,47.38562376089627],[8.960830843703592,46.71043723384548],[6.297727852783867,45.7248690126415],[5.926132086609018,45.116292996542775],[6.11192996969644,44.41274457038939],[7.226717268220978,44.54531256440143],[8.341504566745515,45.7248690126415],[11.066540185361045,46.02669743836547],[13.110316899322699,46.49768790823333]]]]},"properties":{"id":"neanderthal-2","name":"Neanderthal","names":{"en":"Neanderthal extinction","fr":"Neanderthal extinction"},"subjectTo":"Neanderthal","partOf":"Neanderthal","borderPrecision":1,"wikidata":"Q6984280","wikipedia":{"en":"https://en.wikipedia.org/wiki/Neanderthal_extinction"},"year":-123000,"source":"Historical Basemaps","sourceUrl":"https://github.com/aourednik/historical-basemaps"}},{"type":"Feature","geometry":{"type":"MultiPolygon","coordinates":[[[[117.53589156578327,9.048627458769701],[117.80207351158406,9.208031259734057],[118.08850387047077,9.431024156767748],[118.5080671639278,9.921140276152514],[120.00277857876631,12.058799097257095],[120.3170655731843,11.743175065341182],[120.04413213066343,10.680406153624832],[119.45590576217771,10.34152625026839],[119.33642228107902,9.907227263789041],[119.22285203247951,9.546504386836059],[119.11716065449951,9.171080681416392],[118.89520876074153,8.722138222815925],[118.41959755983153,8.377233119482453],[117.89114066993156,8.073881659143417],[117.48951343360757,7.927354007263614],[117.63748136277955,6.469864309052052],[118.32447531964954,6.12318729061862],[118.62041117799353,5.912969614273993],[119.10659151670151,5.692155099673281],[119.74073978458149,5.576456282425556],[121.36838700547344,5.523858340525099],[118.97141555259968,5.048925481993578],[118.88132766197468,4.978847585875414],[118.68284133384968,4.914877020079516],[118.41559127281452,4.901593290526293],[118.10842421959187,4.939047418791674],[117.94840529869343,4.798915945250414],[117.9918318123653,4.684646688658617],[118.39120772789265,4.374171339232348],[118.31868270347859,4.234229646880053],[118.11238387535359,4.144840799528978],[117.82211593101765,4.099734865385912],[117.58916762779499,4.048401914793871],[117.55868819664265,3.980721079069994],[117.54050734947468,3.940269790846727],[117.68385604332234,3.629244171339892],[117.58021834800984,3.565474830824755],[117.58774093101765,2.650510631758593],[117.82918837974812,2.314259611327074],[117.84828475425984,2.225346170622728],[117.69636062095906,1.900947533804796],[117.73006728599812,1.799350224692247],[117.91282180259968,1.590053402144335],[118.24725631187702,1.387442909438036],[118.51726058433796,1.165625892836474],[118.76522353599812,0.823025428015612],[118.55611709068562,0.746316217142962],[118.21828750084187,0.758291922766588],[117.85968306968952,0.865542970854662],[117.7082853646114,0.820732377726458],[117.53428939293171,0.610662959772966],[117.37497237633015,0.197262354452036],[117.33888534019734,-0.016971982758619],[117.31821731041218,-0.139655172567942],[117.37765029381062,-0.431837983172514],[117.42981246422077,-0.622370518487074],[117.37029555748249,-1.00378415707884],[117.25522139976765,-1.004031933587171],[117.04563430259968,-0.934580959122755],[116.57888320396687,-1.367720283310987],[116.38421157310749,-1.660468496125318],[116.0462751717403,-1.934458292763807],[116.24550155113484,-2.105623163025953],[116.27270034263874,-2.283497489731886],[116.3491316170528,-2.416793264191725],[116.04077437828327,-2.442873872559645],[116.24452498863484,-2.702999271195509],[116.24821761558796,-2.798310674470045],[116.20198348472859,-2.90010014895735],[115.95590499351765,-3.199323333542921],[115.86336806724812,-3.377465165894606],[115.8063078255489,-3.536469854157545],[115.56814101646687,-3.803909934800245],[114.98581222008015,-4.078456319611647],[114.7124128670528,-4.206153310578443],[114.58087447593952,-4.295410074036695],[113.73428002931526,-4.811603241268482],[113.68885034116796,-5.603334996679582],[113.39355736821064,-6.032692880880859],[112.79161400025913,-6.235955803344496],[112.55006298418161,-6.746854138077496],[112.53656295250202,-7.264518655579664],[112.50087264488484,-7.464936651032545],[112.62459090660359,-7.674394048493483],[112.67842391441609,-7.718775666993238],[113.07268813560749,-7.876816667359449],[113.26259139488484,-7.908177770417311],[113.55871108482624,-7.913900769990065],[113.76137832115437,-7.830829061310865],[113.94835952232624,-7.824078477662184],[114.23076919029499,-7.931510366242506],[114.25219253013874,-8.020443357270338],[114.1376066536739,-8.21136609439192],[114.06916335533406,-8.433954633515455],[114.32927993248249,-8.782966054719068],[114.10475448082234,-8.68810883883772],[113.74381545494343,-8.599913991730787],[113.47468856285359,-8.486092008393385],[113.07378676841999,-8.347123540680983],[112.83578017662312,-8.347638524811842],[112.57097915123249,-8.462617315095045],[112.41435531090046,-8.488374151032545],[112.09337905357624,-8.444576658051588],[111.43913558433796,-8.382431424897291],[110.77773574302937,-8.320307172577955],[110.41538527916218,-8.206685460846998],[110.03817275474812,-7.991411126893141],[109.54362014244343,-7.839940942566969],[109.1153493180568,-7.738750693331721],[109.03720382164265,-7.720286763947584],[108.61044600914265,-7.702139772217848],[108.36070540855671,-7.836140073578932],[108.16022780845906,-7.85564271334944],[107.72973159263874,-7.786660112183668],[107.36764052818562,-7.564995683472731],[107.2068205208614,-7.533564008515455],[106.48369887779499,-7.503360189240553],[106.32023909996296,-7.433792985718824],[106.34466842125202,-7.370187677186109],[106.54658797691609,-7.16002217654524],[106.36552718590046,-7.039659417908766],[106.11754897545124,-6.995707906525709],[105.88996413658406,-6.932635225098707],[105.7522306771114,-6.920232690613844],[105.18477920006062,-6.865668691437818],[105.14388564537312,-6.781699575226881],[105.2861662239864,-6.771202958863356],[105.46737960289265,-6.813187993805983],[105.63347152183796,-6.755237497132399],[105.66398909996296,-6.519298471253492],[105.67216781090046,-6.456322587769606],[105.81074813316609,-6.481571592133619],[105.79429924903748,-6.289274651952216],[105.79152968834187,-6.256896890442945],[105.89147475670124,-6.150919832032301],[105.93318465660359,-6.0259837282115],[106.02416518638874,-6.080723680298902],[106.30810073326374,-6.130947984498121],[106.52126601646687,-6.109951890748121],[106.62800887535359,-6.309376157563307],[106.86400130699421,-6.269573606293775],[106.93512252281452,-6.135954297822096],[106.94217759282506,-6.058148467620351],[105.78708938072468,-4.930913366120436],[105.79636672447468,-5.229591287415602],[105.79559615562702,-5.350346483033277],[105.72847274254109,-5.827141679566481],[105.68928054283406,-5.897135652344801],[105.64068892906452,-5.929026044648268],[105.47567275474812,-5.81498519305525],[105.30404189537312,-5.580207742493727],[105.18672469566609,-5.542331613343336],[105.06914046715046,-5.758665956299879],[105.03278640220906,-5.879498876374342],[104.56340316246296,-5.600874341767408],[104.46468642662312,-5.639219678681471],[104.64216140220906,-5.975669301789381],[104.56848433922077,-6.071165479462721],[104.47688582847859,-5.982384122651197],[103.87250045250202,-5.341800607483961],[103.52345565269734,-4.9993724000865],[103.06859115074421,-4.612679876130201],[102.46222976158406,-4.181821740906813],[102.28652480552937,-3.978840268891432],[102.19675734947468,-3.756602920334913],[102.11066726158406,-3.604252494614698],[101.65957168052937,-3.319250978272535],[101.34546187828327,-3.0148913038188],[100.81207564781452,-2.336048044007399],[100.77875808189656,-2.177243627350904],[100.79625228355671,-2.024697698395826],[100.6503019661739,-1.630999959748365],[100.2720060677364,-0.970915175717451],[99.97199538658406,-0.501324929040052],[99.69655135582234,-0.152409575622656],[99.53036788414265,-0.016971982758619],[99.40104964683796,0.088420264679812],[99.1133146614864,0.22124772544565],[98.99888137291218,0.557795010764025],[98.68911269615437,1.370494567114733],[98.71933272789265,1.47858592148485],[98.6710310311153,1.618280254561327],[98.60055068443562,1.707089506346605],[98.30258468101765,1.935200058180712],[97.98250106285359,2.112426124770067],[97.73999312828327,2.207213484007738],[97.59714797447468,2.251384102064989],[97.54329970787312,2.41012033100786],[97.5087004036739,2.740469061095141],[97.42767623375202,2.924561105925463],[97.25448897789265,3.140228115279101],[96.88595870445515,3.514327131468676],[96.72036269615437,3.704589210707567],[96.39438155601765,3.646694503981493],[96.11843398521687,3.951094471175097],[95.82762435386921,4.223691068846605],[95.5609236092403,4.534462534148119],[95.30815413902546,4.959623895842455],[95.20507338951374,5.245321356017016],[95.19055465172077,5.410494409758471],[95.21608260582234,5.499504648405932],[95.28316024254109,5.550485693175219],[95.46405318687702,5.569940172392748],[95.62773421715046,5.525817476469896],[95.74045089195515,5.468877874571703],[96.02468398521687,5.215323530394457],[96.18733504722859,5.145788274962328],[96.60203078697468,5.076786600310228],[96.75271132896687,5.064410291869066],[96.99945357750202,5.109420381743334],[97.20378402183796,5.173398100096605],[97.38407424400593,5.180140577513598],[97.60238738681095,5.149969498966026],[97.89007061693384,4.848297339313419],[98.36701913003233,4.304953379252273],[99.16193331852979,3.791437965084917],[99.69117748106665,3.436606306278691],[100.27112526232861,2.995093577854257],[100.79307826546437,2.799611502874566],[101.33639815758015,2.780523143965624],[101.26427749107624,3.225161157805346],[101.06691268394734,3.536084018904589],[100.75484378682111,3.821068283767549],[100.66430953453327,3.903745018202684],[100.57663253258015,4.202192865569017],[100.59420302818562,4.424622141081713],[100.60761550377156,4.551729284483812],[100.55932906578327,4.7358890401906],[100.37971785972859,5.02142723675432],[100.00081546973118,5.476862262425703],[99.80519850170892,5.744546734777655],[99.37728638416021,6.498234874280435],[98.72930517758645,7.214409099750028],[98.29240706871296,8.155707918364428],[98.19523147056843,8.327052675444506],[98.17717269371296,8.600222192961596],[97.86769155531886,8.897552674234666],[97.52326718917706,9.380206096057549],[97.50104626232918,10.332537579405379],[97.52326718917706,11.401820287946926],[97.52326718917706,12.326025324447594],[97.66770321368811,13.084708060433416],[97.78991831135134,13.41995984723486],[97.81213923819921,13.646800999932163],[97.6445909349956,14.338873422312634],[97.55878363796481,14.78734437774074],[97.50729925974633,15.334217197729798],[96.82084088349998,15.499656494083125],[95.77399185972429,15.45003854599818],[95.34495537457032,15.416953312456252],[95.01888764585328,15.36731558539352],[94.45255948545005,14.58813659949219],[93.81758548742218,14.022742256002392],[93.19977294880044,12.720468086702235],[92.78789792305263,11.646890660998283],[92.90802813889574,12.603259381136239],[93.25125732701895,13.639474358012624],[93.62880943395442,14.438612240927027],[93.98920008148376,14.687763181764122],[93.98920008148376,15.10238223114147],[94.14335921715046,16.215379320341967],[94.20874490625405,17.037853690097787],[93.8210935219287,17.460956540005142],[93.63649762463092,18.321724836671166],[93.30422500949491,19.038692502701444],[92.75043731760155,19.839421062266016],[92.1597304462486,20.32486281079525],[90.86755916516411,20.49786836941964],[89.87074131975606,20.186318824762655],[88.44935291056309,19.87414519646808],[87.08334327055947,19.42214226363368],[86.08652542515142,18.89903535882809],[85.16354593866247,18.37428826100085],[84.35132399055222,17.777641352451443],[83.61294040136104,17.16135875122675],[82.74533968406146,16.401406646133122],[82.0992540435192,15.78063650376205],[81.34241086459828,15.35385954968008],[80.65940604459645,15.033201640923302],[80.36405260891999,14.712061038605192],[80.136367578808,14.48887190469884],[80.16166213463093,14.254099451262377],[80.16971877525593,13.891985498625658],[80.07589248131062,13.669416986662767],[80.17812636802937,13.523516260344408],[80.20183669112136,13.491685502526611],[80.31988051841999,13.33321341152849],[80.31345656822468,13.104481302458666],[80.22375777672077,12.831091486174486],[79.92280868004109,12.10616263027849],[79.86674412709428,11.969091014091317],[79.76935103843952,11.730975710112475],[79.7252796581039,11.515919075964018],[79.71073440025593,11.44494207974138],[79.71220807803685,11.424527911645875],[79.73182967613484,11.15271910305681],[79.82626632164265,10.358728014189623],[81.16958990508301,8.843810026075763],[82.13063163182792,7.059256725837177],[81.73591806548626,6.479837559288032],[81.08378260805222,6.019233067852462],[80.29435547536892,6.275174580716186],[80.03693358427654,7.178460859816896],[79.95112628724574,8.351722134017882],[79.2989908298117,8.894678791982695],[78.79764846275593,9.130231462675951],[78.66012862633015,9.123585306364916],[78.31383803795124,8.995764337736986],[78.18113234947468,8.811212145048998],[78.1357755989864,8.499774538237475],[78.06494430015827,8.385257326323412],[77.89976027916218,8.257814966399096],[77.84802767502394,8.232693772986277],[77.7339265439026,8.177286614748871],[77.66318038414265,8.14293249722185],[77.61860946129109,8.117421709257982],[77.58883956383015,8.098305307585619],[77.48439315269734,8.028187357146166],[77.41947463463093,8.028042398650072],[77.34137252281452,8.053283296782396],[76.70353225181843,8.706356607634447],[76.6623869271114,8.884175859648607],[76.53785994957234,9.118999086577318],[76.46720982062818,9.410125717712518],[76.3852873177364,9.747702203947924],[76.29400169963552,9.98494614387835],[76.24837566146853,10.103524527673583],[76.07506087730671,10.553955637175463],[76.04670811007392,10.612195984134463],[75.73442294059149,11.253671169659425],[75.65175155113484,11.423489175993822],[75.5906967808219,11.517517622322632],[75.43986977288574,11.74980134311904],[75.21094039390827,12.10236796017351],[74.96174148033406,12.876961313444994],[74.78552700599192,13.255583335063942],[74.49378219608722,13.58943660794385],[74.09906862974556,14.155903806363174],[73.48125609112384,14.803936811510486],[72.67466749903437,16.258952790908385],[71.3703965841663,18.616433530274072],[70.61529237029531,20.04147150206865],[69.18905803168525,21.457319201408808],[69.12606337974812,21.96850737209978],[68.8941755623653,22.285655580717943],[69.01423171470906,22.30496748562517],[69.49224379966999,22.24880941982927],[68.88241103599812,22.99714811917009],[68.79081252525593,23.028724275786303],[68.37294295738484,23.326415621001146],[68.0721769661739,23.67518766995134],[68.04699996422077,23.764070116240404],[67.69232467125202,23.814155183989428],[67.48602584312702,23.928060136992357],[67.31589034508015,24.092885576445482],[67.2042341561153,24.588166795927904],[67.1535978646114,24.65159186001482],[66.99953750084187,24.714782320219896],[66.70171645591999,24.752278886992357],[66.65421584556843,24.783935152251146],[66.64811232994343,24.90462454434099],[66.70050338218952,25.114379488188646],[66.62050918052937,25.31748541470232],[66.43233016441609,25.488610826689623],[66.30008986900593,25.494687639433764],[65.76880172203327,25.309339128691576],[65.21567061851765,25.270059190947435],[64.85119155357624,25.20576437588396],[64.42497542808796,25.173116289336107],[64.23826125572468,25.210826479155443],[64.12006667564656,25.312226854521654],[64.05922225425984,25.401034914214037],[63.89421614403443,25.375051239413736],[64.26647452883817,26.4884840991224],[64.37504947452753,26.813234103975468],[68.46260290245084,31.56891648135647],[69.23197655825003,31.9772233272141],[73.16948260733221,34.06685905015303],[79.23888012152138,30.614295534778563],[85.55600814649377,27.3646175651433],[92.36859719303261,26.370185093887553],[95.83682434399785,27.80375856511909],[102.27781762436184,29.326712732825424],[104.01193119984447,32.40935218695817],[108.47108039394263,33.3455687625369],[116.89391776057248,33.96418889636963],[120.14423046291192,33.9014588037256],[120.98219767662407,33.765382191588344],[121.33824353495704,33.13330082776411],[121.70492104028064,32.29346326477853],[122.1938243807121,30.99282767007783],[122.49938896848174,29.40837138046459],[122.0715985456042,27.762781978851784],[121.88825979294242,25.56018185125677],[121.82714687538848,24.02529573438016],[121.44858693686878,24.029095060419483],[121.48153212974812,24.09287031765642],[121.39941695640827,23.933911882597826],[121.37008193443562,23.622638307768725],[121.32531264732624,23.40023764248552],[121.1824064583614,23.037910066801928],[120.9697370858028,22.719880663115404],[120.78197768638874,22.34474142666521],[120.77584365318562,22.18593557949724],[120.7246427864864,21.988931261259935],[120.62239364097859,21.92519911404314],[120.57657912681843,21.95050963040056],[120.52810195396687,22.096486650664232],[120.1134367317989,22.641852937895678],[118.41746613378066,23.60494278654584],[117.61848798904491,23.138879707311013],[116.76628256606173,22.303690602466606],[116.16263705811532,22.23797116842056],[115.06187172009538,21.991249252895226],[114.02357463858934,21.580333560534548],[112.47073944778236,20.84794573265557],[111.8917674352788,20.429976409561014],[111.82559920527838,19.870915789063762],[110.4526084327699,18.197767064184962],[109.75784201776561,17.709935991845835],[108.93073914276052,17.946151322796016],[108.7653185677595,18.840866541789485],[108.30214095775663,18.856521531957195],[107.55774837025203,18.91912687501033],[107.3261595652506,18.511776152935322],[107.11497024009968,16.954610429961107],[107.37534490539612,16.691467982144694],[107.69201949547077,16.37142714138689],[107.80916884849812,16.28274305935564],[108.0953474373653,16.25158842678728],[108.23614791343952,16.080380998808764],[108.36306289146687,15.623269640166185],[108.49894240806843,15.36310728665056],[108.78612044761921,15.090558611113451],[108.91776565025593,14.792262636382006],[109.07114699791218,14.170025430876635],[109.30712417076374,12.906332575041674],[109.17454055259968,12.709093652922533],[109.06843093345906,12.48651274319353],[109.09094527672077,12.118089281279467],[109.04842666099812,11.933768831450365],[109.07335189293171,11.635222040373705],[109.06130507896687,11.590727411467455],[109.38539290654764,11.153965653876384],[107.84030281714337,9.83610018349816],[107.24460543327666,7.628271316511526],[106.77921685213077,6.815692609095455],[105.96013294931406,6.815692609095455],[105.45751328167653,7.018972937575496],[105.23412676272652,6.149821978076171],[106.27547607395731,4.634719301409],[108.49397117021131,4.885003329344947],[111.10314464819557,5.218569249107921],[112.26122699403885,6.34298013846884],[114.57739168572542,6.592531853903721],[115.67966283417864,6.703403703431421],[117.14470676566711,8.142295188647873],[117.2417357627917,8.454622346917354],[117.12781051109577,8.469577394682787],[117.22448256920124,8.685808740813158],[117.3787947029903,8.895802103239916],[117.53589156578327,9.048627458769701]]]]},"properties":{"id":"homo-erectus","name":"Homo erectus","names":{"en":"Homo erectus","fr":"Homo erectus"},"subjectTo":"Homo erectus","partOf":"Homo erectus","borderPrecision":1,"wikidata":"Q101362","wikipedia":{"en":"https://en.wikipedia.org/wiki/Homo_erectus","fr":"https://fr.wikipedia.org/wiki/Homo_erectus"},"year":-123000,"source":"Historical Basemaps","sourceUrl":"https://github.com/aourednik/historical-basemaps"}}]}
